1 08820U 76039A   03177.97797639  .00000018  00000-0  10000-3 0  9441
2 08820 109.8050 184.9518 0044567 299.2804  60.3435  6.38664407377685
